{
    "links": {
        "self": "http://www.neowsapp.com/rest/v1/neo/54016726?api_key=iIulBulltgU6a56xZRHN4H3l9WmuAYTsLGpBGhQ2"
    },
    "id": "54016726",
    "neo_reference_id": "54016726",
    "name": "(2020 HG5)",
    "designation": "2020 HG5",
    "nasa_jpl_url": "http://ssd.jpl.nasa.gov/sbdb.cgi?sstr=54016726",
    "absolute_magnitude_h": 25.747,
    "estimated_diameter": {
        "kilometers": {
            "estimated_diameter_min": 0.0188432138,
            "estimated_diameter_max": 0.0421347071
        },
        "meters": {
            "estimated_diameter_min": 18.8432138363,
            "estimated_diameter_max": 42.1347070526
        },
        "miles": {
            "estimated_diameter_min": 0.0117086266,
            "estimated_diameter_max": 0.0261812851
        },
        "feet": {
            "estimated_diameter_min": 61.8215696827,
            "estimated_diameter_max": 138.2372322863
        }
    },
    "is_potentially_hazardous_asteroid": false,
    "close_approach_data": [
        {
            "close_approach_date": "2015-03-14",
            "close_approach_date_full": "2015-Mar-14 11:53",
            "epoch_date_close_approach": 1426333980000,
            "relative_velocity": {
                "kilometers_per_second": "12.7633223593",
                "kilometers_per_hour": "45947.9604934109",
                "miles_per_hour": "28550.2757854752"
            },
            "miss_distance": {
                "astronomical": "0.3284963621",
                "lunar": "127.7850848569",
                "kilometers": "49142356.072908727",
                "miles": "30535644.1070733526"
            },
            "orbiting_body": "Earth"
        },
        {
            "close_approach_date": "2020-04-24",
            "close_approach_date_full": "2020-Apr-24 13:44",
            "epoch_date_close_approach": 1587735840000,
            "relative_velocity": {
                "kilometers_per_second": "3.3606499346",
                "kilometers_per_hour": "12098.339764568",
                "miles_per_hour": "7517.4378387117"
            },
            "miss_distance": {
                "astronomical": "0.0478048991",
                "lunar": "18.5961057499",
                "kilometers": "7151511.080924917",
                "miles": "4443742.9265891746"
            },
            "orbiting_body": "Earth"
        },
        {
            "close_approach_date": "2025-06-06",
            "close_approach_date_full": "2025-Jun-06 07:13",
            "epoch_date_close_approach": 1749193980000,
            "relative_velocity": {
                "kilometers_per_second": "11.1350433738",
                "kilometers_per_hour": "40086.1561456948",
                "miles_per_hour": "24907.9785228624"
            },
            "miss_distance": {
                "astronomical": "0.2663026214",
                "lunar": "103.5917197246",
                "kilometers": "39838304.936856418",
                "miles": "24754374.8121498484"
            },
            "orbiting_body": "Earth"
        },
        {
            "close_approach_date": "2111-03-13",
            "close_approach_date_full": "2111-Mar-13 21:12",
            "epoch_date_close_approach": 4455724320000,
            "relative_velocity": {
                "kilometers_per_second": "14.3877924822",
                "kilometers_per_hour": "51796.0529361",
                "miles_per_hour": "32184.053003545"
            },
            "miss_distance": {
                "astronomical": "0.383727325",
                "lunar": "149.269929425",
                "kilometers": "57404790.48079775",
                "miles": "35669682.77959895"
            },
            "orbiting_body": "Earth"
        },
        {
            "close_approach_date": "2111-07-22",
            "close_approach_date_full": "2111-Jul-22 11:06",
            "epoch_date_close_approach": 4467006360000,
            "relative_velocity": {
                "kilometers_per_second": "4.1596503892",
                "kilometers_per_hour": "14974.7414012641",
                "miles_per_hour": "9304.721955691"
            },
            "miss_distance": {
                "astronomical": "0.3996405214",
                "lunar": "155.4601628246",
                "kilometers": "59785370.767129418",
                "miles": "37148906.7769972484"
            },
            "orbiting_body": "Earth"
        }
    ],
    "orbital_data": {
        "orbit_id": "6",
        "orbit_determination_date": "2020-05-13 06:11:15",
        "first_observation_date": "2020-04-22",
        "last_observation_date": "2020-05-13",
        "data_arc_in_days": 21,
        "observations_used": 41,
        "orbit_uncertainty": "7",
        "minimum_orbit_intersection": ".0454906",
        "jupiter_tisserand_invariant": "4.683",
        "epoch_osculation": "2459000.5",
        "eccentricity": ".2660681020954634",
        "semi_major_axis": "1.414678455567174",
        "inclination": "2.308006807515057",
        "ascending_node_longitude": "88.98294925197463",
        "orbital_period": "614.5893585573544",
        "perihelion_distance": "1.038277643819075",
        "perihelion_argument": "122.2296840074481",
        "aphelion_distance": "1.791079267315273",
        "perihelion_time": "2458960.325704287172",
        "mean_anomaly": "23.53237369837812",
        "mean_motion": ".5857569692469776",
        "equinox": "J2000",
        "orbit_class": {
            "orbit_class_type": "AMO",
            "orbit_class_description": "Near-Earth asteroid orbits similar to that of 1221 Amor",
            "orbit_class_range": "1.017 AU < q (perihelion) < 1.3 AU"
        }
    },
    "is_sentry_object": false
}